[{"OBJECT_NAME":"ONEWEB-0403","OBJECT_ID":"2021-132Q","EPOCH":"2026-05-09T02:49:40.067904","MEAN_MOTION":13.1868604,"ECCENTRICITY":0.0001829,"INCLINATION":87.9186,"RA_OF_ASC_NODE":343.2283,"ARG_OF_PERICENTER":89.812,"MEAN_ANOMALY":270.3222,"EPHEMERIS_TYPE":0,"CLASSIFICATION_TYPE":"U","NORAD_CAT_ID":50483,"ELEMENT_SET_NO":999,"REV_AT_EPOCH":21644,"BSTAR":0.00030679000000000004,"MEAN_MOTION_DOT":1.34e-06,"MEAN_MOTION_DDOT":0.0},{"OBJECT_NAME":"ONEWEB-0404","OBJECT_ID":"2021-132R","EPOCH":"2026-05-09T04:35:24.124416","MEAN_MOTION":13.11416862,"ECCENTRICITY":0.0001798,"INCLINATION":87.8914,"RA_OF_ASC_NODE":28.8224,"ARG_OF_PERICENTER":89.9158,"MEAN_ANOMALY":270.2176,"EPHEMERIS_TYPE":0,"CLASSIFICATION_TYPE":"U","NORAD_CAT_ID":50484,"ELEMENT_SET_NO":999,"REV_AT_EPOCH":21058,"BSTAR":-0.00014889,"MEAN_MOTION_DOT":-4e-07,"MEAN_MOTION_DDOT":0.0},{"OBJECT_NAME":"ONEWEB-0405","OBJECT_ID":"2021-132S","EPOCH":"2026-05-09T03:09:03.595968","MEAN_MOTION":13.18684432,"ECCENTRICITY":0.0001345,"INCLINATION":87.919,"RA_OF_ASC_NODE":343.2094,"ARG_OF_PERICENTER":84.0911,"MEAN_ANOMALY":276.0375,"EPHEMERIS_TYPE":0,"CLASSIFICATION_TYPE":"U","NORAD_CAT_ID":50485,"ELEMENT_SET_NO":999,"REV_AT_EPOCH":21684,"BSTAR":-8.1712e-05,"MEAN_MOTION_DOT":-1.9e-07,"MEAN_MOTION_DDOT":0.0},{"OBJECT_NAME":"ONEWEB-0406","OBJECT_ID":"2021-132T","EPOCH":"2026-05-09T02:56:58.428672","MEAN_MOTION":13.18671548,"ECCENTRICITY":0.0001942,"INCLINATION":87.9176,"RA_OF_ASC_NODE":343.2303,"ARG_OF_PERICENTER":101.9474,"MEAN_ANOMALY":258.1876,"EPHEMERIS_TYPE":0,"CLASSIFICATION_TYPE":"U","NORAD_CAT_ID":50486,"ELEMENT_SET_NO":999,"REV_AT_EPOCH":21647,"BSTAR":0.0083519,"MEAN_MOTION_DOT":3.306e-05,"MEAN_MOTION_DDOT":0.0},{"OBJECT_NAME":"ONEWEB-0407","OBJECT_ID":"2021-132U","EPOCH":"2026-05-09T02:47:16.310400","MEAN_MOTION":13.1869346,"ECCENTRICITY":0.0001849,"INCLINATION":87.9186,"RA_OF_ASC_NODE":343.2217,"ARG_OF_PERICENTER":79.2164,"MEAN_ANOMALY":280.9176,"EPHEMERIS_TYPE":0,"CLASSIFICATION_TYPE":"U","NORAD_CAT_ID":50487,"ELEMENT_SET_NO":999,"REV_AT_EPOCH":21641,"BSTAR":-5.0459e-05,"MEAN_MOTION_DOT":-7e-08,"MEAN_MOTION_DDOT":0.0},{"OBJECT_NAME":"ONEWEB-0409","OBJECT_ID":"2021-132V","EPOCH":"2026-05-09T04:32:58.187040","MEAN_MOTION":13.11413558,"ECCENTRICITY":0.0001717,"INCLINATION":87.8924,"RA_OF_ASC_NODE":28.8088,"ARG_OF_PERICENTER":88.5977,"MEAN_ANOMALY":271.5347,"EPHEMERIS_TYPE":0,"CLASSIFICATION_TYPE":"U","NORAD_CAT_ID":50488,"ELEMENT_SET_NO":999,"REV_AT_EPOCH":21047,"BSTAR":0.00040298,"MEAN_MOTION_DOT":1.56e-06,"MEAN_MOTION_DDOT":0.0},{"OBJECT_NAME":"ONEWEB-0412","OBJECT_ID":"2021-132W","EPOCH":"2026-05-09T02:30:15.237792","MEAN_MOTION":13.186868,"ECCENTRICITY":0.0002105,"INCLINATION":87.9179,"RA_OF_ASC_NODE":343.2338,"ARG_OF_PERICENTER":81.7869,"MEAN_ANOMALY":278.3502,"EPHEMERIS_TYPE":0,"CLASSIFICATION_TYPE":"U","NORAD_CAT_ID":50489,"ELEMENT_SET_NO":999,"REV_AT_EPOCH":21650,"BSTAR":0.00033492,"MEAN_MOTION_DOT":1.45e-06,"MEAN_MOTION_DDOT":0.0},{"OBJECT_NAME":"ONEWEB-0413","OBJECT_ID":"2021-132X","EPOCH":"2026-05-09T02:37:31.969920","MEAN_MOTION":13.18685944,"ECCENTRICITY":0.0001999,"INCLINATION":87.9175,"RA_OF_ASC_NODE":343.2343,"ARG_OF_PERICENTER":78.9289,"MEAN_ANOMALY":281.2068,"EPHEMERIS_TYPE":0,"CLASSIFICATION_TYPE":"U","NORAD_CAT_ID":50490,"ELEMENT_SET_NO":999,"REV_AT_EPOCH":21644,"BSTAR":0.0003554,"MEAN_MOTION_DOT":1.53e-06,"MEAN_MOTION_DDOT":0.0},{"OBJECT_NAME":"ONEWEB-0414","OBJECT_ID":"2021-132Y","EPOCH":"2026-05-09T02:15:40.116384","MEAN_MOTION":13.18686165,"ECCENTRICITY":0.0001995,"INCLINATION":87.9188,"RA_OF_ASC_NODE":343.2151,"ARG_OF_PERICENTER":86.363,"MEAN_ANOMALY":273.773,"EPHEMERIS_TYPE":0,"CLASSIFICATION_TYPE":"U","NORAD_CAT_ID":50491,"ELEMENT_SET_NO":999,"REV_AT_EPOCH":21647,"BSTAR":-4.1676000000000006e-06,"MEAN_MOTION_DOT":1.1e-07,"MEAN_MOTION_DDOT":0.0},{"OBJECT_NAME":"ONEWEB-0417","OBJECT_ID":"2021-132Z","EPOCH":"2026-05-09T02:27:49.872384","MEAN_MOTION":13.18686882,"ECCENTRICITY":0.0001798,"INCLINATION":87.9177,"RA_OF_ASC_NODE":343.2364,"ARG_OF_PERICENTER":92.8108,"MEAN_ANOMALY":267.323,"EPHEMERIS_TYPE":0,"CLASSIFICATION_TYPE":"U","NORAD_CAT_ID":50492,"ELEMENT_SET_NO":999,"REV_AT_EPOCH":21645,"BSTAR":0.00013585,"MEAN_MOTION_DOT":6.6e-07,"MEAN_MOTION_DDOT":0.0},{"OBJECT_NAME":"ONEWEB-0418","OBJECT_ID":"2021-132AA","EPOCH":"2026-05-09T02:42:12.478752","MEAN_MOTION":13.18687555,"ECCENTRICITY":0.0001802,"INCLINATION":87.919,"RA_OF_ASC_NODE":343.2304,"ARG_OF_PERICENTER":96.9168,"MEAN_ANOMALY":263.2169,"EPHEMERIS_TYPE":0,"CLASSIFICATION_TYPE":"U","NORAD_CAT_ID":50493,"ELEMENT_SET_NO":999,"REV_AT_EPOCH":21651,"BSTAR":-0.00022116,"MEAN_MOTION_DOT":-7.4e-07,"MEAN_MOTION_DDOT":0.0},{"OBJECT_NAME":"ONEWEB-0419","OBJECT_ID":"2021-132AB","EPOCH":"2026-05-09T03:08:02.665824","MEAN_MOTION":13.18663729,"ECCENTRICITY":0.0001614,"INCLINATION":87.9187,"RA_OF_ASC_NODE":343.2266,"ARG_OF_PERICENTER":91.2115,"MEAN_ANOMALY":268.9202,"EPHEMERIS_TYPE":0,"CLASSIFICATION_TYPE":"U","NORAD_CAT_ID":50494,"ELEMENT_SET_NO":999,"REV_AT_EPOCH":21643,"BSTAR":6.594100000000001e-05,"MEAN_MOTION_DOT":3.9e-07,"MEAN_MOTION_DDOT":0.0},{"OBJECT_NAME":"ONEWEB-0420","OBJECT_ID":"2021-132AC","EPOCH":"2026-05-09T02:18:05.586336","MEAN_MOTION":13.18686254,"ECCENTRICITY":0.0001764,"INCLINATION":87.9179,"RA_OF_ASC_NODE":343.2398,"ARG_OF_PERICENTER":78.5062,"MEAN_ANOMALY":281.6268,"EPHEMERIS_TYPE":0,"CLASSIFICATION_TYPE":"U","NORAD_CAT_ID":50495,"ELEMENT_SET_NO":999,"REV_AT_EPOCH":21642,"BSTAR":0.00013608,"MEAN_MOTION_DOT":6.7e-07,"MEAN_MOTION_DDOT":0.0},{"OBJECT_NAME":"ONEWEB-0421","OBJECT_ID":"2021-132AD","EPOCH":"2026-05-09T02:08:21.861024","MEAN_MOTION":13.18684544,"ECCENTRICITY":0.00022,"INCLINATION":87.9183,"RA_OF_ASC_NODE":343.2369,"ARG_OF_PERICENTER":87.203,"MEAN_ANOMALY":272.9354,"EPHEMERIS_TYPE":0,"CLASSIFICATION_TYPE":"U","NORAD_CAT_ID":50496,"ELEMENT_SET_NO":999,"REV_AT_EPOCH":21646,"BSTAR":0.00021453,"MEAN_MOTION_DOT":9.7e-07,"MEAN_MOTION_DDOT":0.0},{"OBJECT_NAME":"ONEWEB-0424","OBJECT_ID":"2021-132AE","EPOCH":"2026-05-09T03:01:49.682208","MEAN_MOTION":13.18687086,"ECCENTRICITY":0.0001457,"INCLINATION":87.9186,"RA_OF_ASC_NODE":343.2266,"ARG_OF_PERICENTER":89.1474,"MEAN_ANOMALY":270.9825,"EPHEMERIS_TYPE":0,"CLASSIFICATION_TYPE":"U","NORAD_CAT_ID":50497,"ELEMENT_SET_NO":999,"REV_AT_EPOCH":21649,"BSTAR":-0.00010466,"MEAN_MOTION_DOT":-2.8e-07,"MEAN_MOTION_DDOT":0.0},{"OBJECT_NAME":"ONEWEB-0426","OBJECT_ID":"2021-132AF","EPOCH":"2026-05-09T02:02:52.890432","MEAN_MOTION":13.18772158,"ECCENTRICITY":0.0002353,"INCLINATION":87.9188,"RA_OF_ASC_NODE":343.2258,"ARG_OF_PERICENTER":99.377,"MEAN_ANOMALY":260.7628,"EPHEMERIS_TYPE":0,"CLASSIFICATION_TYPE":"U","NORAD_CAT_ID":50498,"ELEMENT_SET_NO":999,"REV_AT_EPOCH":21643,"BSTAR":0.00014194,"MEAN_MOTION_DOT":6.9e-07,"MEAN_MOTION_DDOT":0.0}]